start=new Date('2023-06-20T00:00:00.000Z').valueOf();
sats=[{"SITE":"AFETR","CENTER_NAME":"EARTH","ECCENTRICITY":"0.00082100","TLE_LINE1":"1 44951U 20001AP  23170.73846757  .00023535  00000-0  49395-3 0  9997","LAUNCH_DATE":"2020-01-07","APOAPSIS":"436.233","TLE_LINE2":"2 44951  53.0209  47.4434 0008210  76.3747 283.8172 15.45250744192410","MEAN_ANOMALY":"283.8172","OBJECT_TYPE":"PAYLOAD","RCS_SIZE":"LARGE","NORAD_CAT_ID":"44951","REF_FRAME":"TEME","SEMIMAJOR_AXIS":"6808.778","MEAN_MOTION":"15.45250744","PERIAPSIS":"425.053","MEAN_MOTION_DDOT":"0.0000000000000","DECAY_DATE":null,"ARG_OF_PERICENTER":"76.3747","MEAN_ELEMENT_THEORY":"SGP4","COUNTRY_CODE":"US","RA_OF_ASC_NODE":"47.4434","CLASSIFICATION_TYPE":"U","PERIOD":"93.189","BSTAR":"0.00049395000000","OBJECT_NAME":"STARLINK-1126","TIME_SYSTEM":"UTC","GP_ID":"234313861","EPHEMERIS_TYPE":"0","EPOCH":"2023-06-19T17:43:23.598048","FILE":"3937509","INCLINATION":"53.0209","REV_AT_EPOCH":"19241","ELEMENT_SET_NO":"999","OBJECT_ID":"2020-001AP","MEAN_MOTION_DOT":"0.00023535"},{"GP_ID":"234294526","TIME_SYSTEM":"UTC","OBJECT_NAME":"STARLINK-1117","EPHEMERIS_TYPE":"0","BSTAR":"0.00027160000000","OBJECT_ID":"2020-001AQ","MEAN_MOTION_DOT":"0.00003766","FILE":"3937463","EPOCH":"2023-06-19T12:45:28.048032","REV_AT_EPOCH":"19028","ELEMENT_SET_NO":"999","INCLINATION":"53.0547","MEAN_MOTION_DDOT":"0.0000000000000","PERIAPSIS":"546.350","ARG_OF_PERICENTER":"84.5473","DECAY_DATE":null,"PERIOD":"95.592","RA_OF_ASC_NODE":"109.5661","CLASSIFICATION_TYPE":"U","COUNTRY_CODE":"US","MEAN_ELEMENT_THEORY":"SGP4","RCS_SIZE":"LARGE","NORAD_CAT_ID":"44952","OBJECT_TYPE":"PAYLOAD","MEAN_ANOMALY":"275.5660","MEAN_MOTION":"15.06395894","SEMIMAJOR_AXIS":"6925.361","REF_FRAME":"TEME","CENTER_NAME":"EARTH","ECCENTRICITY":"0.00012650","LAUNCH_DATE":"2020-01-07","TLE_LINE1":"1 44952U 20001AQ  23170.53157463  .00003766  00000-0  27160-3 0  9995","SITE":"AFETR","APOAPSIS":"548.102","TLE_LINE2":"2 44952  53.0547 109.5661 0001265  84.5473 275.5660 15.06395894190284"},{"RCS_SIZE":"LARGE","NORAD_CAT_ID":"44953","OBJECT_TYPE":"PAYLOAD","MEAN_ANOMALY":"265.4631","MEAN_MOTION":"15.06410755","SEMIMAJOR_AXIS":"6925.316","REF_FRAME":"TEME","TLE_LINE1":"1 44953U 20001AR  23170.54906344  .00004372  00000-0  31212-3 0  9994","LAUNCH_DATE":"2020-01-07","ECCENTRICITY":"0.00013610","CENTER_NAME":"EARTH","SITE":"AFETR","TLE_LINE2":"2 44953  53.0542 109.4855 0001361  94.6513 265.4631 15.06410755191571","APOAPSIS":"548.123","EPHEMERIS_TYPE":"0","TIME_SYSTEM":"UTC","OBJECT_NAME":"STARLINK-1124","GP_ID":"234294515","BSTAR":"0.00031212000000","MEAN_MOTION_DOT":"0.00004372","OBJECT_ID":"2020-001AR","INCLINATION":"53.0542","REV_AT_EPOCH":"19157","ELEMENT_SET_NO":"999","FILE":"3937463","EPOCH":"2023-06-19T13:10:39.081216","DECAY_DATE":null,"ARG_OF_PERICENTER":"94.6513","PERIAPSIS":"546.238","MEAN_MOTION_DDOT":"0.0000000000000","RA_OF_ASC_NODE":"109.4855","CLASSIFICATION_TYPE":"U","PERIOD":"95.591","MEAN_ELEMENT_THEORY":"SGP4","COUNTRY_CODE":"US"},{"DECAY_DATE":null,"ARG_OF_PERICENTER":"95.7635","PERIAPSIS":"546.255","MEAN_MOTION_DDOT":"0.0000000000000","CLASSIFICATION_TYPE":"U","RA_OF_ASC_NODE":"89.7209","PERIOD":"95.591","MEAN_ELEMENT_THEORY":"SGP4","COUNTRY_CODE":"US","EPHEMERIS_TYPE":"0","TIME_SYSTEM":"UTC","OBJECT_NAME":"STARLINK-1066","GP_ID":"234283178","BSTAR":"0.00115610000000","MEAN_MOTION_DOT":"0.00016990","OBJECT_ID":"2020-001AS","INCLINATION":"53.0543","REV_AT_EPOCH":"19050","ELEMENT_SET_NO":"999","FILE":"3937338","EPOCH":"2023-06-19T11:55:03.059616","LAUNCH_DATE":"2020-01-07","TLE_LINE1":"1 44954U 20001AS  23170.49656319  .00016990  00000-0  11561-2 0  9996","ECCENTRICITY":"0.00012940","CENTER_NAME":"EARTH","SITE":"AFETR","TLE_LINE2":"2 44954  53.0543  89.7209 0001294  95.7635 264.3502 15.06420336190501","APOAPSIS":"548.047","RCS_SIZE":"LARGE","NORAD_CAT_ID":"44954","OBJECT_TYPE":"PAYLOAD","MEAN_ANOMALY":"264.3502","MEAN_MOTION":"15.06420336","REF_FRAME":"TEME","SEMIMAJOR_AXIS":"6925.286"},{"SEMIMAJOR_AXIS":"6925.331","REF_FRAME":"TEME","MEAN_MOTION":"15.06405580","MEAN_ANOMALY":"265.1305","OBJECT_TYPE":"PAYLOAD","RCS_SIZE":"LARGE","NORAD_CAT_ID":"44955","APOAPSIS":"548.145","TLE_LINE2":"2 44955  53.0542  89.6919 0001370  94.9840 265.1305 15.06405580190506","SITE":"AFETR","CENTER_NAME":"EARTH","ECCENTRICITY":"0.00013700","TLE_LINE1":"1 44955U 20001AT  23170.50393040  .00007859  00000-0  54583-3 0  9994","LAUNCH_DATE":"2020-01-07","EPOCH":"2023-06-19T12:05:39.586560","FILE":"3937456","REV_AT_EPOCH":"19050","ELEMENT_SET_NO":"999","INCLINATION":"53.0542","OBJECT_ID":"2020-001AT","MEAN_MOTION_DOT":"0.00007859","BSTAR":"0.00054583000000","GP_ID":"234294933","OBJECT_NAME":"STARLINK-1069","TIME_SYSTEM":"UTC","EPHEMERIS_TYPE":"0","MEAN_ELEMENT_THEORY":"SGP4","COUNTRY_CODE":"US","PERIOD":"95.592","RA_OF_ASC_NODE":"89.6919","CLASSIFICATION_TYPE":"U","MEAN_MOTION_DDOT":"0.0000000000000","PERIAPSIS":"546.248","ARG_OF_PERICENTER":"94.9840","DECAY_DATE":null},{"SEMIMAJOR_AXIS":"6925.308","REF_FRAME":"TEME","MEAN_MOTION":"15.06413099","MEAN_ANOMALY":"263.8176","OBJECT_TYPE":"PAYLOAD","RCS_SIZE":"LARGE","NORAD_CAT_ID":"44956","APOAPSIS":"548.099","TLE_LINE2":"2 44956  53.0534  90.5963 0001337  96.2965 263.8176 15.06413099190532","SITE":"AFETR","ECCENTRICITY":"0.00013370","CENTER_NAME":"EARTH","TLE_LINE1":"1 44956U 20001AU  23170.30026920  .00011439  00000-0  78530-3 0  9990","LAUNCH_DATE":"2020-01-07","FILE":"3937338","EPOCH":"2023-06-19T07:12:23.258880","REV_AT_EPOCH":"19053","ELEMENT_SET_NO":"999","INCLINATION":"53.0534","OBJECT_ID":"2020-001AU","MEAN_MOTION_DOT":"0.00011439","BSTAR":"0.00078530000000","GP_ID":"234282683","TIME_SYSTEM":"UTC","OBJECT_NAME":"STARLINK-1070","EPHEMERIS_TYPE":"0","COUNTRY_CODE":"US","MEAN_ELEMENT_THEORY":"SGP4","PERIOD":"95.591","CLASSIFICATION_TYPE":"U","RA_OF_ASC_NODE":"90.5963","MEAN_MOTION_DDOT":"0.0000000000000","PERIAPSIS":"546.247","ARG_OF_PERICENTER":"96.2965","DECAY_DATE":null},{"DECAY_DATE":null,"ARG_OF_PERICENTER":"87.6564","PERIAPSIS":"546.212","MEAN_MOTION_DDOT":"0.0000000000000","COUNTRY_CODE":"US","MEAN_ELEMENT_THEORY":"SGP4","RA_OF_ASC_NODE":"91.0749","CLASSIFICATION_TYPE":"U","PERIOD":"95.592","BSTAR":"0.00069423000000","EPHEMERIS_TYPE":"0","TIME_SYSTEM":"UTC","OBJECT_NAME":"STARLINK-1074","GP_ID":"234282434","INCLINATION":"53.0540","REV_AT_EPOCH":"19051","ELEMENT_SET_NO":"999","EPOCH":"2023-06-19T04:38:26.723040","FILE":"3937338","MEAN_MOTION_DOT":"0.00010076","OBJECT_ID":"2020-001AV","SITE":"AFETR","LAUNCH_DATE":"2020-01-07","TLE_LINE1":"1 44957U 20001AV  23170.19336485  .00010076  00000-0  69423-3 0  9995","CENTER_NAME":"EARTH","ECCENTRICITY":"0.00014130","TLE_LINE2":"2 44957  53.0540  91.0749 0001413  87.6564 272.4587 15.06407516190519","APOAPSIS":"548.169","OBJECT_TYPE":"PAYLOAD","MEAN_ANOMALY":"272.4587","NORAD_CAT_ID":"44957","RCS_SIZE":"LARGE","REF_FRAME":"TEME","SEMIMAJOR_AXIS":"6925.326","MEAN_MOTION":"15.06407516"},{"INCLINATION":"53.0548","REV_AT_EPOCH":"19051","ELEMENT_SET_NO":"999","EPOCH":"2023-06-19T05:01:02.746848","FILE":"3937338","MEAN_MOTION_DOT":"0.00010421","OBJECT_ID":"2020-001AX","BSTAR":"0.00071733000000","EPHEMERIS_TYPE":"0","OBJECT_NAME":"STARLINK-1076","TIME_SYSTEM":"UTC","GP_ID":"234283177","COUNTRY_CODE":"US","MEAN_ELEMENT_THEORY":"SGP4","CLASSIFICATION_TYPE":"U","RA_OF_ASC_NODE":"91.0171","PERIOD":"95.592","DECAY_DATE":null,"ARG_OF_PERICENTER":"92.6545","PERIAPSIS":"546.446","MEAN_MOTION_DDOT":"0.0000000000000","REF_FRAME":"TEME","SEMIMAJOR_AXIS":"6925.329","MEAN_MOTION":"15.06406281","OBJECT_TYPE":"PAYLOAD","MEAN_ANOMALY":"267.4567","NORAD_CAT_ID":"44959","RCS_SIZE":"LARGE","TLE_LINE2":"2 44959  53.0548  91.0171 0001080  92.6545 267.4567 15.06406281190513","APOAPSIS":"547.942","SITE":"AFETR","TLE_LINE1":"1 44959U 20001AX  23170.20905957  .00010421  00000-0  71733-3 0  9996","LAUNCH_DATE":"2020-01-07","ECCENTRICITY":"0.00010800","CENTER_NAME":"EARTH"},{"ARG_OF_PERICENTER":"96.4967","DECAY_DATE":null,"MEAN_MOTION_DDOT":"0.0000000000000","PERIAPSIS":"546.172","PERIOD":"95.592","RA_OF_ASC_NODE":"91.2799","CLASSIFICATION_TYPE":"U","MEAN_ELEMENT_THEORY":"SGP4","COUNTRY_CODE":"US","EPHEMERIS_TYPE":"0","GP_ID":"234283686","OBJECT_NAME":"STARLINK-1080","TIME_SYSTEM":"UTC","BSTAR":"0.00044146000000","MEAN_MOTION_DOT":"0.00006301","OBJECT_ID":"2020-001AZ","REV_AT_EPOCH":"19051","ELEMENT_SET_NO":"999","INCLINATION":"53.0546","EPOCH":"2023-06-19T03:36:07.637760","FILE":"3937338","LAUNCH_DATE":"2020-01-07","TLE_LINE1":"1 44961U 20001AZ  23170.15008840  .00006301  00000-0  44146-3 0  9998","CENTER_NAME":"EARTH","ECCENTRICITY":"0.00014930","SITE":"AFETR","TLE_LINE2":"2 44961  53.0546  91.2799 0001493  96.4967 263.6192 15.06402516190519","APOAPSIS":"548.240","NORAD_CAT_ID":"44961","RCS_SIZE":"LARGE","MEAN_ANOMALY":"263.6192","OBJECT_TYPE":"PAYLOAD","MEAN_MOTION":"15.06402516","REF_FRAME":"TEME","SEMIMAJOR_AXIS":"6925.341"},{"EPHEMERIS_TYPE":"0","OBJECT_NAME":"STARLINK-1086","TIME_SYSTEM":"UTC","GP_ID":"234283936","BSTAR":"0.00098893000000","MEAN_MOTION_DOT":"0.00014483","OBJECT_ID":"2020-001BC","INCLINATION":"53.0548","ELEMENT_SET_NO":"999","REV_AT_EPOCH":"19056","EPOCH":"2023-06-19T12:16:16.648320","FILE":"3937338","DECAY_DATE":null,"ARG_OF_PERICENTER":"100.3184","PERIAPSIS":"546.173","MEAN_MOTION_DDOT":"0.0000000000000","RA_OF_ASC_NODE":"89.6578","CLASSIFICATION_TYPE":"U","PERIOD":"95.592","COUNTRY_CODE":"US","MEAN_ELEMENT_THEORY":"SGP4","NORAD_CAT_ID":"44964","RCS_SIZE":"LARGE","OBJECT_TYPE":"PAYLOAD","MEAN_ANOMALY":"259.7970","MEAN_MOTION":"15.06408635","REF_FRAME":"TEME","SEMIMAJOR_AXIS":"6925.322","LAUNCH_DATE":"2020-01-07","TLE_LINE1":"1 44964U 20001BC  23170.51130380  .00014483  00000-0  98893-3 0  9994","CENTER_NAME":"EARTH","ECCENTRICITY":"0.00014640","SITE":"AFETR","TLE_LINE2":"2 44964  53.0548  89.6578 0001464 100.3184 259.7970 15.06408635190567","APOAPSIS":"548.201"}];
